0 COSMOS 1244
1 12297U 81013A   13282.59581361  .00000066  00000-0  52786-4 0  1297
2 12297 082.9494 273.6104 0031317 158.1275 335.4724 13.74870644282718
0 COSMOS 1244
1 12297U 81013A   13283.81629706  .00000061  00000-0  47445-4 0  1302
2 12297 082.9494 272.7074 0031392 154.8118 256.2081 13.74870798282880
0 COSMOS 1244
1 12297U 81013A   13286.14475818  .00000025  00000-0  10189-4 0  1321
2 12297 082.9496 270.9843 0031516 148.5205 260.8024 13.74871216283202
0 COSMOS 1244
1 12297U 81013A   13287.47587550  .00000010  00000-0 -56637-5 0  1330
2 12297 082.9499 269.9991 0031578 144.9618 009.0599 13.74871244283383
0 COSMOS 1244
1 12297U 81013A   13288.48943588  .00000024  00000-0  93585-5 0  1347
2 12297 082.9501 269.2490 0031624 142.2032 345.6451 13.74871353283520
0 COSMOS 1244
1 12297U 81013A   13289.51239508  .00000028  00000-0  12701-4 0  1357
2 12297 082.9503 268.4920 0031668 139.4225 008.7465 13.74871397283666
0 COSMOS 1244
1 12297U 81013A   13290.52952277  .00000040  00000-0  25688-4 0  1368
2 12297 082.9506 267.7393 0031712 136.6561 002.9867 13.74871329283800
0 COSMOS 1244
1 12297U 81013A   13292.11216929  .00000056  00000-0  42711-4 0  1376
2 12297 082.9509 266.5682 0031763 132.4762 276.1200 13.74871320284026
0 COSMOS 1244
1 12297U 81013A   13293.51328243  .00000074  00000-0  61544-4 0  1380
2 12297 082.9510 265.5316 0031798 128.7189 010.8299 13.74871370284217
0 COSMOS 1244
1 12297U 81013A   13294.80627578  .00000092  00000-0  80474-4 0  1390
2 12297 082.9511 264.5751 0031830 125.2567 290.4042 13.74871521284398
0 COSMOS 1244
1 12297U 81013A   13295.82470294  .00000085  00000-0  72672-4 0  1409
2 12297 082.9511 263.8217 0031856 122.5378 291.0254 13.74871590284539
